ERS-1                   
1 21574U 91050A   26067.02906674  .00000451  00000+0  15895-3 0  9999
2 21574  98.7884  85.2220 0031538 205.4587 154.5048 14.39448063815491
ARIANE 40 R/B           
1 21610U 91050F   26066.73724126  .00000410  00000+0  13512-3 0  9996
2 21610  98.2015 119.0469 0004364  85.5255 274.6434 14.42892046818719
INTERCOSMOS 25          
1 21819U 91086A   26066.75899004  .00001545  00000+0  29574-3 0  9991
2 21819  82.6050 311.1758 1487001 121.0897 254.4665 12.11992759496455
SL-8 R/B                
1 21876U 92008B   26066.68732161  .00000010  00000+0 -61108-5 0  9999
2 21876  82.9225 269.2683 0035447 138.7786 290.2215 13.75969779709148
SL-8 R/B                
1 21938U 92020B   26066.73832647  .00000108  00000+0  96417-4 0  9995
2 21938  82.9339 155.2101 0027748 304.4836 166.4433 13.75549342700861
USA 81                  
1 21949U 92023A   26066.63293157  .00000229  00000+0  77566-4 0  9994
2 21949  85.0088 132.6277 0002524  79.2218 280.9258 14.32367249 94497
COSMOS 2219             
1 22219U 92076A   26066.32812136  .00000232  00000+0  14625-3 0  9993
2 22219  71.0629  23.0035 0019167 210.2267 149.7752 14.14091747718043
SL-16 R/B               
1 22220U 92076B   26066.80048310 -.00000122  00000+0 -37008-4 0  9994
2 22220  71.0005 192.3525 0010489  99.8675  12.7813 14.16860099721563
COSMOS 2221             
1 22236U 92080A   26066.63102638  .00002200  00000+0  19264-3 0  9991
2 22236  82.5010 281.0535 0013859 194.2098 165.8736 14.96191649780489
SL-16 R/B               
1 22285U 92093B   26066.54872439 -.00000199  00000+0 -77712-4 0  9992
2 22285  71.0240   8.7596 0006387 295.9297  64.1167 14.15448574712858
COSMOS 2228             
1 22286U 92094A   26066.98292281  .00003169  00000+0  27129-3 0  9997
2 22286  82.5154 238.9446 0016870 310.8232  49.1527 14.97181038775801
SL-16 R/B               
1 22566U 93016B   26066.80097333  .00000212  00000+0  13337-3 0  9997
2 22566  71.0068 219.1474 0011645 316.8205  43.2004 14.15307984701907
