CCSDS_OMM_VERS = 2.0
CREATION_DATE  = 
ORIGINATOR     = 

OBJECT_NAME    = ERS-1
OBJECT_ID      = 1991-050A
CENTER_NAME    = EARTH
REF_FRAME      = TEME
TIME_SYSTEM    = UTC
MEAN_ELEMENT_THEORY = SGP/SGP4

EPOCH          = 2026-03-08T00:41:51.366336
MEAN_MOTION    = 14.39448063
ECCENTRICITY   = .0031538
INCLINATION    = 98.7884
RA_OF_ASC_NODE = 85.2220
ARG_OF_PERICENTER = 205.4587
MEAN_ANOMALY   = 154.5048

EPHEMERIS_TYPE = 0
CLASSIFICATION_TYPE = U
NORAD_CAT_ID   = 21574
ELEMENT_SET_NO = 999
REV_AT_EPOCH   = 81549
BSTAR          = .15895E-3
MEAN_MOTION_DOT = .451E-5
MEAN_MOTION_DDOT = 0

CCSDS_OMM_VERS = 2.0
CREATION_DATE  = 
ORIGINATOR     = 

OBJECT_NAME    = ARIANE 40 R/B
OBJECT_ID      = 1991-050F
CENTER_NAME    = EARTH
REF_FRAME      = TEME
TIME_SYSTEM    = UTC
MEAN_ELEMENT_THEORY = SGP/SGP4

EPOCH          = 2026-03-07T17:41:37.645728
MEAN_MOTION    = 14.42892046
ECCENTRICITY   = .00043636
INCLINATION    = 98.2015
RA_OF_ASC_NODE = 119.0469
ARG_OF_PERICENTER = 85.5255
MEAN_ANOMALY   = 274.6434

EPHEMERIS_TYPE = 0
CLASSIFICATION_TYPE = U
NORAD_CAT_ID   = 21610
ELEMENT_SET_NO = 999
REV_AT_EPOCH   = 81871
BSTAR          = .13512017E-3
MEAN_MOTION_DOT = .41E-5
MEAN_MOTION_DDOT = 0

CCSDS_OMM_VERS = 2.0
CREATION_DATE  = 
ORIGINATOR     = 

OBJECT_NAME    = INTERCOSMOS 25
OBJECT_ID      = 1991-086A
CENTER_NAME    = EARTH
REF_FRAME      = TEME
TIME_SYSTEM    = UTC
MEAN_ELEMENT_THEORY = SGP/SGP4

EPOCH          = 2026-03-07T18:12:56.739456
MEAN_MOTION    = 12.11992759
ECCENTRICITY   = .14870011
INCLINATION    = 82.6050
RA_OF_ASC_NODE = 311.1758
ARG_OF_PERICENTER = 121.0897
MEAN_ANOMALY   = 254.4665

EPHEMERIS_TYPE = 0
CLASSIFICATION_TYPE = U
NORAD_CAT_ID   = 21819
ELEMENT_SET_NO = 999
REV_AT_EPOCH   = 49645
BSTAR          = .29574016E-3
MEAN_MOTION_DOT = .1545E-4
MEAN_MOTION_DDOT = 0

CCSDS_OMM_VERS = 2.0
CREATION_DATE  = 
ORIGINATOR     = 

OBJECT_NAME    = SL-8 R/B
OBJECT_ID      = 1992-008B
CENTER_NAME    = EARTH
REF_FRAME      = TEME
TIME_SYSTEM    = UTC
MEAN_ELEMENT_THEORY = SGP/SGP4

EPOCH          = 2026-03-07T16:29:44.587968
MEAN_MOTION    = 13.75969779
ECCENTRICITY   = .0035447
INCLINATION    = 82.9225
RA_OF_ASC_NODE = 269.2683
ARG_OF_PERICENTER = 138.7786
MEAN_ANOMALY   = 290.2215

EPHEMERIS_TYPE = 0
CLASSIFICATION_TYPE = U
NORAD_CAT_ID   = 21876
ELEMENT_SET_NO = 999
REV_AT_EPOCH   = 70914
BSTAR          = -.6110761E-5
MEAN_MOTION_DOT = .1E-6
MEAN_MOTION_DDOT = 0

CCSDS_OMM_VERS = 2.0
CREATION_DATE  = 
ORIGINATOR     = 

OBJECT_NAME    = SL-8 R/B
OBJECT_ID      = 1992-020B
CENTER_NAME    = EARTH
REF_FRAME      = TEME
TIME_SYSTEM    = UTC
MEAN_ELEMENT_THEORY = SGP/SGP4

EPOCH          = 2026-03-07T17:43:11.407008
MEAN_MOTION    = 13.75549342
ECCENTRICITY   = .00277482
INCLINATION    = 82.9339
RA_OF_ASC_NODE = 155.2101
ARG_OF_PERICENTER = 304.4836
MEAN_ANOMALY   = 166.4433

EPHEMERIS_TYPE = 0
CLASSIFICATION_TYPE = U
NORAD_CAT_ID   = 21938
ELEMENT_SET_NO = 999
REV_AT_EPOCH   = 70086
BSTAR          = .96416821E-4
MEAN_MOTION_DOT = .108E-5
MEAN_MOTION_DDOT = 0

CCSDS_OMM_VERS = 2.0
CREATION_DATE  = 
ORIGINATOR     = 

OBJECT_NAME    = USA 81
OBJECT_ID      = 1992-023A
CENTER_NAME    = EARTH
REF_FRAME      = TEME
TIME_SYSTEM    = UTC
MEAN_ELEMENT_THEORY = SGP/SGP4

EPOCH          = 2026-03-07T15:11:25.287648
MEAN_MOTION    = 14.32367249
ECCENTRICITY   = .0002524
INCLINATION    = 85.0088
RA_OF_ASC_NODE = 132.6277
ARG_OF_PERICENTER = 79.2218
MEAN_ANOMALY   = 280.9258

EPHEMERIS_TYPE = 0
CLASSIFICATION_TYPE = U
NORAD_CAT_ID   = 21949
ELEMENT_SET_NO = 999
REV_AT_EPOCH   = 9449
BSTAR          = .77566E-4
MEAN_MOTION_DOT = .229E-5
MEAN_MOTION_DDOT = 0

CCSDS_OMM_VERS = 2.0
CREATION_DATE  = 
ORIGINATOR     = 

OBJECT_NAME    = COSMOS 2219
OBJECT_ID      = 1992-076A
CENTER_NAME    = EARTH
REF_FRAME      = TEME
TIME_SYSTEM    = UTC
MEAN_ELEMENT_THEORY = SGP/SGP4

EPOCH          = 2026-03-07T07:52:29.685504
MEAN_MOTION    = 14.14091747
ECCENTRICITY   = .00191677
INCLINATION    = 71.0629
RA_OF_ASC_NODE = 23.0035
ARG_OF_PERICENTER = 210.2267
MEAN_ANOMALY   = 149.7752

EPHEMERIS_TYPE = 0
CLASSIFICATION_TYPE = U
NORAD_CAT_ID   = 22219
ELEMENT_SET_NO = 999
REV_AT_EPOCH   = 71804
BSTAR          = .14624764E-3
MEAN_MOTION_DOT = .232E-5
MEAN_MOTION_DDOT = 0

CCSDS_OMM_VERS = 2.0
CREATION_DATE  = 
ORIGINATOR     = 

OBJECT_NAME    = SL-16 R/B
OBJECT_ID      = 1992-076B
CENTER_NAME    = EARTH
REF_FRAME      = TEME
TIME_SYSTEM    = UTC
MEAN_ELEMENT_THEORY = SGP/SGP4

EPOCH          = 2026-03-07T19:12:41.740704
MEAN_MOTION    = 14.16860099
ECCENTRICITY   = .00104894
INCLINATION    = 71.0005
RA_OF_ASC_NODE = 192.3525
ARG_OF_PERICENTER = 99.8675
MEAN_ANOMALY   = 12.7813

EPHEMERIS_TYPE = 0
CLASSIFICATION_TYPE = U
NORAD_CAT_ID   = 22220
ELEMENT_SET_NO = 999
REV_AT_EPOCH   = 72156
BSTAR          = -.37008258E-4
MEAN_MOTION_DOT = -.122E-5
MEAN_MOTION_DDOT = 0

CCSDS_OMM_VERS = 2.0
CREATION_DATE  = 
ORIGINATOR     = 

OBJECT_NAME    = COSMOS 2221
OBJECT_ID      = 1992-080A
CENTER_NAME    = EARTH
REF_FRAME      = TEME
TIME_SYSTEM    = UTC
MEAN_ELEMENT_THEORY = SGP/SGP4

EPOCH          = 2026-03-07T15:08:40.679232
MEAN_MOTION    = 14.96191649
ECCENTRICITY   = .0013859
INCLINATION    = 82.5010
RA_OF_ASC_NODE = 281.0535
ARG_OF_PERICENTER = 194.2098
MEAN_ANOMALY   = 165.8736

EPHEMERIS_TYPE = 0
CLASSIFICATION_TYPE = U
NORAD_CAT_ID   = 22236
ELEMENT_SET_NO = 999
REV_AT_EPOCH   = 78048
BSTAR          = .19264E-3
MEAN_MOTION_DOT = .22E-4
MEAN_MOTION_DDOT = 0

CCSDS_OMM_VERS = 2.0
CREATION_DATE  = 
ORIGINATOR     = 

OBJECT_NAME    = SL-16 R/B
OBJECT_ID      = 1992-093B
CENTER_NAME    = EARTH
REF_FRAME      = TEME
TIME_SYSTEM    = UTC
MEAN_ELEMENT_THEORY = SGP/SGP4

EPOCH          = 2026-03-07T13:10:09.787296
MEAN_MOTION    = 14.15448574
ECCENTRICITY   = .0006387
INCLINATION    = 71.0240
RA_OF_ASC_NODE = 8.7596
ARG_OF_PERICENTER = 295.9297
MEAN_ANOMALY   = 64.1167

EPHEMERIS_TYPE = 0
CLASSIFICATION_TYPE = U
NORAD_CAT_ID   = 22285
ELEMENT_SET_NO = 999
REV_AT_EPOCH   = 71285
BSTAR          = -.77712E-4
MEAN_MOTION_DOT = -.199E-5
MEAN_MOTION_DDOT = 0

CCSDS_OMM_VERS = 2.0
CREATION_DATE  = 
ORIGINATOR     = 

OBJECT_NAME    = COSMOS 2228
OBJECT_ID      = 1992-094A
CENTER_NAME    = EARTH
REF_FRAME      = TEME
TIME_SYSTEM    = UTC
MEAN_ELEMENT_THEORY = SGP/SGP4

EPOCH          = 2026-03-07T23:35:24.530784
MEAN_MOTION    = 14.97181038
ECCENTRICITY   = .001687
INCLINATION    = 82.5154
RA_OF_ASC_NODE = 238.9446
ARG_OF_PERICENTER = 310.8232
MEAN_ANOMALY   = 49.1527

EPHEMERIS_TYPE = 0
CLASSIFICATION_TYPE = U
NORAD_CAT_ID   = 22286
ELEMENT_SET_NO = 999
REV_AT_EPOCH   = 77580
BSTAR          = .27129E-3
MEAN_MOTION_DOT = .3169E-4
MEAN_MOTION_DDOT = 0

CCSDS_OMM_VERS = 2.0
CREATION_DATE  = 
ORIGINATOR     = 

OBJECT_NAME    = SL-16 R/B
OBJECT_ID      = 1993-016B
CENTER_NAME    = EARTH
REF_FRAME      = TEME
TIME_SYSTEM    = UTC
MEAN_ELEMENT_THEORY = SGP/SGP4

EPOCH          = 2026-03-07T19:13:24.096576
MEAN_MOTION    = 14.15307984
ECCENTRICITY   = .00116455
INCLINATION    = 71.0068
RA_OF_ASC_NODE = 219.1474
ARG_OF_PERICENTER = 316.8205
MEAN_ANOMALY   = 43.2004

EPHEMERIS_TYPE = 0
CLASSIFICATION_TYPE = U
NORAD_CAT_ID   = 22566
ELEMENT_SET_NO = 999
REV_AT_EPOCH   = 70190
BSTAR          = .13336925E-3
MEAN_MOTION_DOT = .212E-5
MEAN_MOTION_DDOT = 0

